start=new Date('2022-03-26T00:00:00.000Z').valueOf();
sats=[{"OBJECT_TYPE":"PAYLOAD","MEAN_MOTION_DOT":"-0.00051934","OBJECT_NAME":"STARLINK-2229","CLASSIFICATION_TYPE":"U","BSTAR":"-0.00349120000000","PERIAPSIS":"546.087","REV_AT_EPOCH":"358","NORAD_CAT_ID":"47992","INCLINATION":"53.0527","MEAN_MOTION":"15.06420546","EPHEMERIS_TYPE":"0","OBJECT_ID":"2021-024R","REF_FRAME":"TEME","ARG_OF_PERICENTER":"64.7170","RCS_SIZE":"LARGE","ELEMENT_SET_NO":"999","MEAN_MOTION_DDOT":"0.0000000000000","SITE":"AFETR","APOAPSIS":"548.214","RA_OF_ASC_NODE":"263.9579","MEAN_ELEMENT_THEORY":"SGP4","SEMIMAJOR_AXIS":"6925.286","DECAY_DATE":null,"ECCENTRICITY":"0.00015360","PERIOD":"95.591","TLE_LINE2":"2 47992  53.0527 263.9579 0001536  64.7170 149.1325 15.06420546  3580","MEAN_ANOMALY":"149.1325","TIME_SYSTEM":"UTC","TLE_LINE1":"1 47992U 21024R   22084.58334491 -.00051934  00000-0 -34912-2 0  9998","CENTER_NAME":"EARTH","GP_ID":"199663170","LAUNCH_DATE":"2021-03-24","COUNTRY_CODE":"US","EPOCH":"2022-03-25T14:00:01.000224","FILE":"3373822"},{"BSTAR":"-0.00003939800000","INCLINATION":"53.0544","PERIAPSIS":"546.073","REV_AT_EPOCH":"5683","NORAD_CAT_ID":"47993","OBJECT_TYPE":"PAYLOAD","MEAN_MOTION_DOT":"-0.00000868","CLASSIFICATION_TYPE":"U","OBJECT_NAME":"STARLINK-2273","RCS_SIZE":"LARGE","ELEMENT_SET_NO":"999","MEAN_MOTION":"15.06396891","ARG_OF_PERICENTER":"62.8977","REF_FRAME":"TEME","EPHEMERIS_TYPE":"0","OBJECT_ID":"2021-024S","RA_OF_ASC_NODE":"302.5833","SEMIMAJOR_AXIS":"6925.358","MEAN_ELEMENT_THEORY":"SGP4","MEAN_MOTION_DDOT":"0.0000000000000","SITE":"AFETR","APOAPSIS":"548.373","GP_ID":"199670844","LAUNCH_DATE":"2021-03-24","COUNTRY_CODE":"US","EPOCH":"2022-03-25T21:23:35.786688","CENTER_NAME":"EARTH","FILE":"3374072","PERIOD":"95.592","TLE_LINE2":"2 47993  53.0544 302.5833 0001660  62.8977 297.2181 15.06396891 56831","DECAY_DATE":null,"ECCENTRICITY":"0.00016600","TLE_LINE1":"1 47993U 21024S   22084.89138642 -.00000868  00000-0 -39398-4 0  9998","MEAN_ANOMALY":"297.2181","TIME_SYSTEM":"UTC"},{"MEAN_MOTION":"15.06396870","OBJECT_ID":"2021-024T","EPHEMERIS_TYPE":"0","REF_FRAME":"TEME","ARG_OF_PERICENTER":"65.3820","RCS_SIZE":"LARGE","ELEMENT_SET_NO":"999","OBJECT_TYPE":"PAYLOAD","MEAN_MOTION_DOT":"0.00000490","OBJECT_NAME":"STARLINK-2290","CLASSIFICATION_TYPE":"U","BSTAR":"0.00005176200000","PERIAPSIS":"546.173","REV_AT_EPOCH":"5700","NORAD_CAT_ID":"47994","INCLINATION":"53.0560","ECCENTRICITY":"0.00015160","DECAY_DATE":null,"PERIOD":"95.592","TLE_LINE2":"2 47994  53.0560 319.9361 0001516  65.3820 294.7327 15.06396870 57004","TIME_SYSTEM":"UTC","MEAN_ANOMALY":"294.7327","TLE_LINE1":"1 47994U 21024T   22084.36475675  .00000490  00000-0  51762-4 0  9999","CENTER_NAME":"EARTH","GP_ID":"199661669","COUNTRY_CODE":"US","LAUNCH_DATE":"2021-03-24","EPOCH":"2022-03-25T08:45:14.983200","FILE":"3373822","MEAN_MOTION_DDOT":"0.0000000000000","APOAPSIS":"548.273","SITE":"AFETR","RA_OF_ASC_NODE":"319.9361","MEAN_ELEMENT_THEORY":"SGP4","SEMIMAJOR_AXIS":"6925.358"},{"BSTAR":"0.00015151000000","PERIAPSIS":"546.045","REV_AT_EPOCH":"5753","NORAD_CAT_ID":"47995","INCLINATION":"53.0546","OBJECT_TYPE":"PAYLOAD","CLASSIFICATION_TYPE":"U","MEAN_MOTION_DOT":"0.00001976","OBJECT_NAME":"STARLINK-2309","RCS_SIZE":"LARGE","ELEMENT_SET_NO":"999","MEAN_MOTION":"15.06400696","EPHEMERIS_TYPE":"0","OBJECT_ID":"2021-024U","REF_FRAME":"TEME","ARG_OF_PERICENTER":"66.3247","RA_OF_ASC_NODE":"284.1484","MEAN_ELEMENT_THEORY":"SGP4","SEMIMAJOR_AXIS":"6925.346","MEAN_MOTION_DDOT":"0.0000000000000","APOAPSIS":"548.378","SITE":"AFETR","CENTER_NAME":"EARTH","GP_ID":"199661919","LAUNCH_DATE":"2021-03-24","EPOCH":"2022-03-25T13:00:39.263904","COUNTRY_CODE":"US","FILE":"3373822","DECAY_DATE":null,"ECCENTRICITY":"0.00016850","PERIOD":"95.592","TLE_LINE2":"2 47995  53.0546 284.1484 0001685  66.3247 293.7919 15.06400696 57535","MEAN_ANOMALY":"293.7919","TIME_SYSTEM":"UTC","TLE_LINE1":"1 47995U 21024U   22084.54212111  .00001976  00000-0  15151-3 0  9995"},{"LAUNCH_DATE":"2021-03-24","COUNTRY_CODE":"US","EPOCH":"2022-03-25T14:00:01.000224","GP_ID":"199662670","CENTER_NAME":"EARTH","FILE":"3373822","TLE_LINE2":"2 47996  53.0442 222.1664 0002708 146.9787 288.3386 15.36521758  3630","PERIOD":"93.718","DECAY_DATE":null,"ECCENTRICITY":"0.00027080","TLE_LINE1":"1 47996U 21024V   22084.58334491 -.00064718  00000-0 -17939-2 0  9996","TIME_SYSTEM":"UTC","MEAN_ANOMALY":"288.3386","RA_OF_ASC_NODE":"222.1664","MEAN_ELEMENT_THEORY":"SGP4","SEMIMAJOR_AXIS":"6834.541","MEAN_MOTION_DDOT":"0.0000000000000","SITE":"AFETR","APOAPSIS":"458.257","RCS_SIZE":"LARGE","ELEMENT_SET_NO":"999","MEAN_MOTION":"15.36521758","ARG_OF_PERICENTER":"146.9787","REF_FRAME":"TEME","OBJECT_ID":"2021-024V","EPHEMERIS_TYPE":"0","BSTAR":"-0.00179390000000","INCLINATION":"53.0442","NORAD_CAT_ID":"47996","REV_AT_EPOCH":"363","PERIAPSIS":"454.555","OBJECT_TYPE":"PAYLOAD","MEAN_MOTION_DOT":"-0.00064718","CLASSIFICATION_TYPE":"U","OBJECT_NAME":"STARLINK-2260"},{"LAUNCH_DATE":"2021-03-24","COUNTRY_CODE":"US","EPOCH":"2022-03-25T19:27:29.267424","GP_ID":"199670897","CENTER_NAME":"EARTH","FILE":"3374081","TLE_LINE2":"2 47997  53.0531 317.9434 0001615  69.2364 290.8798 15.06397102 56614","PERIOD":"95.592","DECAY_DATE":null,"ECCENTRICITY":"0.00016150","TLE_LINE1":"1 47997U 21024W   22084.81075541  .00000004  00000-0  19178-4 0  9996","MEAN_ANOMALY":"290.8798","TIME_SYSTEM":"UTC","RA_OF_ASC_NODE":"317.9434","MEAN_ELEMENT_THEORY":"SGP4","SEMIMAJOR_AXIS":"6925.357","MEAN_MOTION_DDOT":"0.0000000000000","APOAPSIS":"548.341","SITE":"AFETR","RCS_SIZE":"LARGE","ELEMENT_SET_NO":"999","MEAN_MOTION":"15.06397102","REF_FRAME":"TEME","ARG_OF_PERICENTER":"69.2364","OBJECT_ID":"2021-024W","EPHEMERIS_TYPE":"0","BSTAR":"0.00001917800000","INCLINATION":"53.0531","NORAD_CAT_ID":"47997","REV_AT_EPOCH":"5661","PERIAPSIS":"546.104","OBJECT_TYPE":"PAYLOAD","MEAN_MOTION_DOT":"0.00000004","CLASSIFICATION_TYPE":"U","OBJECT_NAME":"STARLINK-2266"},{"PERIAPSIS":"546.132","REV_AT_EPOCH":"5696","NORAD_CAT_ID":"47998","INCLINATION":"53.0554","BSTAR":"0.00025591000000","MEAN_MOTION_DOT":"0.00003533","OBJECT_NAME":"STARLINK-2296","CLASSIFICATION_TYPE":"U","OBJECT_TYPE":"PAYLOAD","ELEMENT_SET_NO":"999","RCS_SIZE":"LARGE","OBJECT_ID":"2021-024X","EPHEMERIS_TYPE":"0","ARG_OF_PERICENTER":"60.4972","REF_FRAME":"TEME","MEAN_MOTION":"15.06405234","SEMIMAJOR_AXIS":"6925.333","MEAN_ELEMENT_THEORY":"SGP4","RA_OF_ASC_NODE":"292.7007","APOAPSIS":"548.263","SITE":"AFETR","MEAN_MOTION_DDOT":"0.0000000000000","FILE":"3374082","CENTER_NAME":"EARTH","GP_ID":"199671407","EPOCH":"2022-03-25T20:41:05.480736","LAUNCH_DATE":"2021-03-24","COUNTRY_CODE":"US","MEAN_ANOMALY":"299.6170","TIME_SYSTEM":"UTC","TLE_LINE1":"1 47998U 21024X   22084.86186899  .00003533  00000-0  25591-3 0  9996","ECCENTRICITY":"0.00015380","DECAY_DATE":null,"PERIOD":"95.592","TLE_LINE2":"2 47998  53.0554 292.7007 0001538  60.4972 299.6170 15.06405234 56963"},{"CENTER_NAME":"EARTH","GP_ID":"199662420","LAUNCH_DATE":"2021-03-24","EPOCH":"2022-03-25T14:00:01.000224","COUNTRY_CODE":"US","FILE":"3373822","ECCENTRICITY":"0.00014640","DECAY_DATE":null,"PERIOD":"95.591","TLE_LINE2":"2 47999  53.0551 263.9603 0001464  73.4462   0.3718 15.06412669  3595","MEAN_ANOMALY":"0.3718","TIME_SYSTEM":"UTC","TLE_LINE1":"1 47999U 21024Y   22084.58334491 -.00012822  00000-0 -84317-3 0  9993","RA_OF_ASC_NODE":"263.9603","MEAN_ELEMENT_THEORY":"SGP4","SEMIMAJOR_AXIS":"6925.310","MEAN_MOTION_DDOT":"0.0000000000000","APOAPSIS":"548.189","SITE":"AFETR","RCS_SIZE":"LARGE","ELEMENT_SET_NO":"999","MEAN_MOTION":"15.06412669","EPHEMERIS_TYPE":"0","OBJECT_ID":"2021-024Y","ARG_OF_PERICENTER":"73.4462","REF_FRAME":"TEME","BSTAR":"-0.00084317000000","PERIAPSIS":"546.161","REV_AT_EPOCH":"359","NORAD_CAT_ID":"47999","INCLINATION":"53.0551","OBJECT_TYPE":"PAYLOAD","MEAN_MOTION_DOT":"-0.00012822","CLASSIFICATION_TYPE":"U","OBJECT_NAME":"STARLINK-2218"},{"MEAN_ELEMENT_THEORY":"SGP4","SEMIMAJOR_AXIS":"6925.282","RA_OF_ASC_NODE":"248.9447","APOAPSIS":"548.366","SITE":"AFETR","MEAN_MOTION_DDOT":"0.0000000000000","FILE":"3373822","CENTER_NAME":"EARTH","COUNTRY_CODE":"US","LAUNCH_DATE":"2021-03-24","EPOCH":"2022-03-25T14:00:01.000224","GP_ID":"199663171","MEAN_ANOMALY":"147.2655","TIME_SYSTEM":"UTC","TLE_LINE1":"1 48000U 21024Z   22084.58334491 -.00026185  00000-0 -17444-2 0  9990","ECCENTRICITY":"0.00017600","DECAY_DATE":null,"TLE_LINE2":"2 48000  53.0549 248.9447 0001760  49.0657 147.2655 15.06421664  3584","PERIOD":"95.591","NORAD_CAT_ID":"48000","REV_AT_EPOCH":"358","PERIAPSIS":"545.928","INCLINATION":"53.0549","BSTAR":"-0.00174440000000","MEAN_MOTION_DOT":"-0.00026185","CLASSIFICATION_TYPE":"U","OBJECT_NAME":"STARLINK-2270","OBJECT_TYPE":"PAYLOAD","ELEMENT_SET_NO":"999","RCS_SIZE":"LARGE","OBJECT_ID":"2021-024Z","EPHEMERIS_TYPE":"0","ARG_OF_PERICENTER":"49.0657","REF_FRAME":"TEME","MEAN_MOTION":"15.06421664"},{"INCLINATION":"53.0542","NORAD_CAT_ID":"48002","PERIAPSIS":"546.313","REV_AT_EPOCH":"357","BSTAR":"0.00123730000000","CLASSIFICATION_TYPE":"U","MEAN_MOTION_DOT":"0.00018182","OBJECT_NAME":"STARLINK-2265","OBJECT_TYPE":"PAYLOAD","ELEMENT_SET_NO":"999","RCS_SIZE":"LARGE","ARG_OF_PERICENTER":"77.1881","REF_FRAME":"TEME","OBJECT_ID":"2021-024AB","EPHEMERIS_TYPE":"0","MEAN_MOTION":"15.06371302","SEMIMAJOR_AXIS":"6925.437","MEAN_ELEMENT_THEORY":"SGP4","RA_OF_ASC_NODE":"268.9467","APOAPSIS":"548.290","SITE":"AFETR","MEAN_MOTION_DDOT":"0.0000000000000","FILE":"3373822","COUNTRY_CODE":"US","LAUNCH_DATE":"2021-03-24","EPOCH":"2022-03-25T14:00:01.000224","GP_ID":"199662921","CENTER_NAME":"EARTH","TLE_LINE1":"1 48002U 21024AB  22084.58334491  .00018182  00000-0  12373-2 0  9994","MEAN_ANOMALY":"29.1097","TIME_SYSTEM":"UTC","TLE_LINE2":"2 48002  53.0542 268.9467 0001428  77.1881  29.1097 15.06371302  3575","PERIOD":"95.594","DECAY_DATE":null,"ECCENTRICITY":"0.00014280"}];
